[{"OBJECT_NAME":"STARLINK-36878","OBJECT_ID":"2026-035W","EPOCH":"2026-03-09T22:00:01.999584","MEAN_MOTION":15.8675758,"ECCENTRICITY":0.00014951,"INCLINATION":97.2671,"RA_OF_ASC_NODE":1.2894,"ARG_OF_PERICENTER":99.5198,"MEAN_ANOMALY":29.0422,"EPHEMERIS_TYPE":0,"CLASSIFICATION_TYPE":"U","NORAD_CAT_ID":67899,"ELEMENT_SET_NO":999,"REV_AT_EPOCH":379,"BSTAR":-0.0063599641,"MEAN_MOTION_DOT":-0.01408602,"MEAN_MOTION_DDOT":0},{"OBJECT_NAME":"ARIANE 5 DEB [SYLDA]","OBJECT_ID":"2006-020C","EPOCH":"2026-03-09T23:29:52.918080","MEAN_MOTION":10.77901026,"ECCENTRICITY":0.23318379,"INCLINATION":6.8059,"RA_OF_ASC_NODE":14.5601,"ARG_OF_PERICENTER":356.4204,"MEAN_ANOMALY":2.1727,"EPHEMERIS_TYPE":0,"CLASSIFICATION_TYPE":"U","NORAD_CAT_ID":29164,"ELEMENT_SET_NO":999,"REV_AT_EPOCH":39225,"BSTAR":0.0070086788,"MEAN_MOTION_DOT":0.00292973,"MEAN_MOTION_DDOT":-1.422663e-6}]
